[{"OBJECT_NAME":"STARLINK-35524","OBJECT_ID":"2025-225E","EPOCH":"2026-03-09T13:32:09.040992","MEAN_MOTION":15.30178989,"ECCENTRICITY":0.0001103,"INCLINATION":53.1572,"RA_OF_ASC_NODE":165.9276,"ARG_OF_PERICENTER":62.6159,"MEAN_ANOMALY":297.4954,"EPHEMERIS_TYPE":0,"CLASSIFICATION_TYPE":"U","NORAD_CAT_ID":65914,"ELEMENT_SET_NO":999,"REV_AT_EPOCH":2439,"BSTAR":0.00061923,"MEAN_MOTION_DOT":0.00018013,"MEAN_MOTION_DDOT":0},{"OBJECT_NAME":"COSMOS 1862","OBJECT_ID":"1987-055A","EPOCH":"2026-03-09T22:37:02.390592","MEAN_MOTION":15.30492139,"ECCENTRICITY":0.00097484,"INCLINATION":82.4856,"RA_OF_ASC_NODE":47.1862,"ARG_OF_PERICENTER":26.6325,"MEAN_ANOMALY":333.5414,"EPHEMERIS_TYPE":0,"CLASSIFICATION_TYPE":"U","NORAD_CAT_ID":18152,"ELEMENT_SET_NO":999,"REV_AT_EPOCH":8987,"BSTAR":0.00034125048,"MEAN_MOTION_DOT":0.00010107,"MEAN_MOTION_DDOT":0}]
